STARLINK-1667
1 46155U 20057AQ  26092.83335647  .00212438  00000+0  17194-2 0  9996
2 46155  53.0202 105.8720 0001744 336.3065 241.3293 15.69628189  5947
STARLINK-1707
1 46359U 20062AL  26092.83335647  .00095950  00000+0  78957-3 0  9991
2 46359  53.0213 155.5541 0002788 338.1704 136.2310 15.69646916  5947
